CCSDS_OMM_VERS = 2.0
CREATION_DATE  = 
ORIGINATOR     = 

OBJECT_NAME    = STARLINK-35437
OBJECT_ID      = 2025-268G
CENTER_NAME    = EARTH
REF_FRAME      = TEME
TIME_SYSTEM    = UTC
MEAN_ELEMENT_THEORY = SGP/SGP4

EPOCH          = 2025-12-04T08:00:01.999872
MEAN_MOTION    = 15.71623802
ECCENTRICITY   = .0001554
INCLINATION    = 42.9992
RA_OF_ASC_NODE = 170.7883
ARG_OF_PERICENTER = 274.3827
MEAN_ANOMALY   = 187.4026

EPHEMERIS_TYPE = 0
CLASSIFICATION_TYPE = U
NORAD_CAT_ID   = 66563
ELEMENT_SET_NO = 999
REV_AT_EPOCH   = 331
BSTAR          = -.16402885E-1
MEAN_MOTION_DOT = -.1928703E-1
MEAN_MOTION_DDOT = 0

CCSDS_OMM_VERS = 2.0
CREATION_DATE  = 
ORIGINATOR     = 

OBJECT_NAME    = STARLINK-35358
OBJECT_ID      = 2025-268H
CENTER_NAME    = EARTH
REF_FRAME      = TEME
TIME_SYSTEM    = UTC
MEAN_ELEMENT_THEORY = SGP/SGP4

EPOCH          = 2025-12-04T08:00:01.999872
MEAN_MOTION    = 15.71622858
ECCENTRICITY   = .00015225
INCLINATION    = 42.9991
RA_OF_ASC_NODE = 170.7837
ARG_OF_PERICENTER = 271.2077
MEAN_ANOMALY   = 192.4962

EPHEMERIS_TYPE = 0
CLASSIFICATION_TYPE = U
NORAD_CAT_ID   = 66564
ELEMENT_SET_NO = 999
REV_AT_EPOCH   = 326
BSTAR          = -.16398559E-1
MEAN_MOTION_DOT = -.1928159E-1
MEAN_MOTION_DDOT = 0

CCSDS_OMM_VERS = 2.0
CREATION_DATE  = 
ORIGINATOR     = 

OBJECT_NAME    = STARLINK-35893
OBJECT_ID      = 2025-268J
CENTER_NAME    = EARTH
REF_FRAME      = TEME
TIME_SYSTEM    = UTC
MEAN_ELEMENT_THEORY = SGP/SGP4

EPOCH          = 2025-12-04T08:00:01.999872
MEAN_MOTION    = 15.71617323
ECCENTRICITY   = .00016089
INCLINATION    = 42.9991
RA_OF_ASC_NODE = 170.7787
ARG_OF_PERICENTER = 269.9405
MEAN_ANOMALY   = 195.6829

EPHEMERIS_TYPE = 0
CLASSIFICATION_TYPE = U
NORAD_CAT_ID   = 66565
ELEMENT_SET_NO = 999
REV_AT_EPOCH   = 331
BSTAR          = -.16337765E-1
MEAN_MOTION_DOT = -.1921486E-1
MEAN_MOTION_DDOT = 0

CCSDS_OMM_VERS = 2.0
CREATION_DATE  = 
ORIGINATOR     = 

OBJECT_NAME    = STARLINK-35871
OBJECT_ID      = 2025-268K
CENTER_NAME    = EARTH
REF_FRAME      = TEME
TIME_SYSTEM    = UTC
MEAN_ELEMENT_THEORY = SGP/SGP4

EPOCH          = 2025-12-04T08:00:01.999872
MEAN_MOTION    = 15.71615747
ECCENTRICITY   = .00016104
INCLINATION    = 42.9992
RA_OF_ASC_NODE = 170.7740
ARG_OF_PERICENTER = 269.5970
MEAN_ANOMALY   = 197.9445

EPHEMERIS_TYPE = 0
CLASSIFICATION_TYPE = U
NORAD_CAT_ID   = 66566
ELEMENT_SET_NO = 999
REV_AT_EPOCH   = 331
BSTAR          = -.16326805E-1
MEAN_MOTION_DOT = -.192023E-1
MEAN_MOTION_DDOT = 0

CCSDS_OMM_VERS = 2.0
CREATION_DATE  = 
ORIGINATOR     = 

OBJECT_NAME    = STARLINK-35825
OBJECT_ID      = 2025-268L
CENTER_NAME    = EARTH
REF_FRAME      = TEME
TIME_SYSTEM    = UTC
MEAN_ELEMENT_THEORY = SGP/SGP4

EPOCH          = 2025-12-04T08:00:01.999872
MEAN_MOTION    = 15.71622616
ECCENTRICITY   = .00014566
INCLINATION    = 42.9991
RA_OF_ASC_NODE = 170.7694
ARG_OF_PERICENTER = 271.8180
MEAN_ANOMALY   = 197.6374

EPHEMERIS_TYPE = 0
CLASSIFICATION_TYPE = U
NORAD_CAT_ID   = 66567
ELEMENT_SET_NO = 999
REV_AT_EPOCH   = 331
BSTAR          = -.16400412E-1
MEAN_MOTION_DOT = -.1928283E-1
MEAN_MOTION_DDOT = 0

CCSDS_OMM_VERS = 2.0
CREATION_DATE  = 
ORIGINATOR     = 

OBJECT_NAME    = STARLINK-35803
OBJECT_ID      = 2025-268M
CENTER_NAME    = EARTH
REF_FRAME      = TEME
TIME_SYSTEM    = UTC
MEAN_ELEMENT_THEORY = SGP/SGP4

EPOCH          = 2025-12-04T08:00:01.999872
MEAN_MOTION    = 15.71622741
ECCENTRICITY   = .00013296
INCLINATION    = 42.9991
RA_OF_ASC_NODE = 170.7641
ARG_OF_PERICENTER = 274.7992
MEAN_ANOMALY   = 196.5724

EPHEMERIS_TYPE = 0
CLASSIFICATION_TYPE = U
NORAD_CAT_ID   = 66568
ELEMENT_SET_NO = 999
REV_AT_EPOCH   = 331
BSTAR          = -.16394839E-1
MEAN_MOTION_DOT = -.1927614E-1
MEAN_MOTION_DDOT = 0

CCSDS_OMM_VERS = 2.0
CREATION_DATE  = 
ORIGINATOR     = 

OBJECT_NAME    = STARLINK-35835
OBJECT_ID      = 2025-268N
CENTER_NAME    = EARTH
REF_FRAME      = TEME
TIME_SYSTEM    = UTC
MEAN_ELEMENT_THEORY = SGP/SGP4

EPOCH          = 2025-12-04T08:00:01.999872
MEAN_MOTION    = 15.71624075
ECCENTRICITY   = .00014203
INCLINATION    = 42.9991
RA_OF_ASC_NODE = 170.7595
ARG_OF_PERICENTER = 269.9788
MEAN_ANOMALY   = 203.3098

EPHEMERIS_TYPE = 0
CLASSIFICATION_TYPE = U
NORAD_CAT_ID   = 66569
ELEMENT_SET_NO = 999
REV_AT_EPOCH   = 331
BSTAR          = -.16414934E-1
MEAN_MOTION_DOT = -.1929874E-1
MEAN_MOTION_DDOT = 0

CCSDS_OMM_VERS = 2.0
CREATION_DATE  = 
ORIGINATOR     = 

OBJECT_NAME    = STARLINK-35834
OBJECT_ID      = 2025-268P
CENTER_NAME    = EARTH
REF_FRAME      = TEME
TIME_SYSTEM    = UTC
MEAN_ELEMENT_THEORY = SGP/SGP4

EPOCH          = 2025-12-04T08:00:01.999872
MEAN_MOTION    = 15.71608426
ECCENTRICITY   = .00015451
INCLINATION    = 42.9991
RA_OF_ASC_NODE = 170.7542
ARG_OF_PERICENTER = 273.4322
MEAN_ANOMALY   = 201.7849

EPHEMERIS_TYPE = 0
CLASSIFICATION_TYPE = U
NORAD_CAT_ID   = 66570
ELEMENT_SET_NO = 999
REV_AT_EPOCH   = 331
BSTAR          = -.16280299E-1
MEAN_MOTION_DOT = -.1914796E-1
MEAN_MOTION_DDOT = 0

CCSDS_OMM_VERS = 2.0
CREATION_DATE  = 
ORIGINATOR     = 

OBJECT_NAME    = STARLINK-35836
OBJECT_ID      = 2025-268Q
CENTER_NAME    = EARTH
REF_FRAME      = TEME
TIME_SYSTEM    = UTC
MEAN_ELEMENT_THEORY = SGP/SGP4

EPOCH          = 2025-12-04T08:00:01.999872
MEAN_MOTION    = 15.71621419
ECCENTRICITY   = .00014902
INCLINATION    = 42.9990
RA_OF_ASC_NODE = 170.7499
ARG_OF_PERICENTER = 275.7569
MEAN_ANOMALY   = 201.3659

EPHEMERIS_TYPE = 0
CLASSIFICATION_TYPE = U
NORAD_CAT_ID   = 66571
ELEMENT_SET_NO = 999
REV_AT_EPOCH   = 331
BSTAR          = -.16383497E-1
MEAN_MOTION_DOT = -.1926459E-1
MEAN_MOTION_DDOT = 0

CCSDS_OMM_VERS = 2.0
CREATION_DATE  = 
ORIGINATOR     = 

OBJECT_NAME    = STARLINK-35870
OBJECT_ID      = 2025-268R
CENTER_NAME    = EARTH
REF_FRAME      = TEME
TIME_SYSTEM    = UTC
MEAN_ELEMENT_THEORY = SGP/SGP4

EPOCH          = 2025-12-04T08:00:01.999872
MEAN_MOTION    = 15.71610464
ECCENTRICITY   = .00015496
INCLINATION    = 42.9989
RA_OF_ASC_NODE = 170.7455
ARG_OF_PERICENTER = 267.8851
MEAN_ANOMALY   = 211.1654

EPHEMERIS_TYPE = 0
CLASSIFICATION_TYPE = U
NORAD_CAT_ID   = 66572
ELEMENT_SET_NO = 999
REV_AT_EPOCH   = 331
BSTAR          = -.16309866E-1
MEAN_MOTION_DOT = -.1918032E-1
MEAN_MOTION_DDOT = 0

CCSDS_OMM_VERS = 2.0
CREATION_DATE  = 
ORIGINATOR     = 

OBJECT_NAME    = STARLINK-35650
OBJECT_ID      = 2025-268S
CENTER_NAME    = EARTH
REF_FRAME      = TEME
TIME_SYSTEM    = UTC
MEAN_ELEMENT_THEORY = SGP/SGP4

EPOCH          = 2025-12-04T08:00:01.999872
MEAN_MOTION    = 15.71624480
ECCENTRICITY   = .00017152
INCLINATION    = 42.9992
RA_OF_ASC_NODE = 170.7400
ARG_OF_PERICENTER = 270.0146
MEAN_ANOMALY   = 210.9394

EPHEMERIS_TYPE = 0
CLASSIFICATION_TYPE = U
NORAD_CAT_ID   = 66573
ELEMENT_SET_NO = 999
REV_AT_EPOCH   = 331
BSTAR          = -.16414866E-1
MEAN_MOTION_DOT = -.1930129E-1
MEAN_MOTION_DDOT = 0

CCSDS_OMM_VERS = 2.0
CREATION_DATE  = 
ORIGINATOR     = 

OBJECT_NAME    = STARLINK-35812
OBJECT_ID      = 2025-268T
CENTER_NAME    = EARTH
REF_FRAME      = TEME
TIME_SYSTEM    = UTC
MEAN_ELEMENT_THEORY = SGP/SGP4

EPOCH          = 2025-12-04T08:00:01.999872
MEAN_MOTION    = 15.71622611
ECCENTRICITY   = .00014572
INCLINATION    = 42.9993
RA_OF_ASC_NODE = 170.7346
ARG_OF_PERICENTER = 273.5212
MEAN_ANOMALY   = 209.3536

EPHEMERIS_TYPE = 0
CLASSIFICATION_TYPE = U
NORAD_CAT_ID   = 66574
ELEMENT_SET_NO = 999
REV_AT_EPOCH   = 331
BSTAR          = -.16405629E-1
MEAN_MOTION_DOT = -.1928826E-1
MEAN_MOTION_DDOT = 0

