STARLINK-35437          
1 66563U 25268G   25338.33335648 -.01928703  00000+0 -16403-1 0  9991
2 66563  42.9992 170.7883 0001554 274.3827 187.4026 15.71623802  3315
STARLINK-35358          
1 66564U 25268H   25338.33335648 -.01928159  00000+0 -16399-1 0  9991
2 66564  42.9991 170.7837 0001522 271.2077 192.4962 15.71622858  3261
STARLINK-35893          
1 66565U 25268J   25338.33335648 -.01921486  00000+0 -16338-1 0  9991
2 66565  42.9991 170.7787 0001608 269.9405 195.6829 15.71617323  3314
STARLINK-35871          
1 66566U 25268K   25338.33335648 -.01920230  00000+0 -16327-1 0  9996
2 66566  42.9992 170.7740 0001610 269.5970 197.9445 15.71615747  3318
STARLINK-35825          
1 66567U 25268L   25338.33335648 -.01928283  00000+0 -16400-1 0  9995
2 66567  42.9991 170.7694 0001456 271.8180 197.6374 15.71622616  3314
STARLINK-35803          
1 66568U 25268M   25338.33335648 -.01927614  00000+0 -16395-1 0  9996
2 66568  42.9991 170.7641 0001329 274.7992 196.5724 15.71622741  3315
STARLINK-35835          
1 66569U 25268N   25338.33335648 -.01929874  00000+0 -16415-1 0  9990
2 66569  42.9991 170.7595 0001420 269.9788 203.3098 15.71624075  3318
STARLINK-35834          
1 66570U 25268P   25338.33335648 -.01914796  00000+0 -16280-1 0  9999
2 66570  42.9991 170.7542 0001545 273.4322 201.7849 15.71608426  3312
STARLINK-35836          
1 66571U 25268Q   25338.33335648 -.01926459  00000+0 -16383-1 0  9993
2 66571  42.9990 170.7499 0001490 275.7569 201.3659 15.71621419  3312
STARLINK-35870          
1 66572U 25268R   25338.33335648 -.01918032  00000+0 -16310-1 0  9992
2 66572  42.9989 170.7455 0001549 267.8851 211.1654 15.71610464  3316
STARLINK-35650          
1 66573U 25268S   25338.33335648 -.01930129  00000+0 -16415-1 0  9990
2 66573  42.9992 170.7400 0001715 270.0146 210.9394 15.71624480  3310
STARLINK-35812          
1 66574U 25268T   25338.33335648 -.01928826  00000+0 -16406-1 0  9992
2 66574  42.9993 170.7346 0001457 273.5212 209.3536 15.71622611  3310
